ONEWEB-0555             
1 56057U 23043M   25231.65133253 -.00000062  00000+0 -19499-3 0  9990
2 56057  87.9020 288.8747 0002189 111.6326 248.5039 13.16594331119283
ONEWEB-0557             
1 56058U 23043N   25231.66557013  .00000019  00000+0  16787-4 0  9994
2 56058  87.9014 288.8916 0003229 107.0002 253.1483 13.16595284119284
ONEWEB-0558             
1 56059U 23043P   25232.24664806  .00000052  00000+0  94239-4 0  9994
2 56059  87.9251 304.0368 0001610  89.1134 271.0185 13.21827597119399
ONEWEB-0559             
1 56060U 23043Q   25231.70573382  .00000016  00000+0  78947-5 0  9993
2 56060  87.9254 304.1367 0001987  86.6828 273.4533 13.21825092118427
ONEWEB-0566             
1 56061U 23043R   25232.22929899  .00000095  00000+0  19855-3 0  9998
2 56061  87.9253 304.0304 0001830  90.2087 269.9257 13.21825319119383
ONEWEB-0568             
1 56062U 23043S   25231.68299348  .00000004  00000+0 -24136-4 0  9997
2 56062  87.9026 288.8649 0002033 105.1474 254.9882 13.16594114119305
ONEWEB-0574             
1 56063U 23043T   25231.69311543  .00000062  00000+0  11833-3 0  9993
2 56063  87.9253 304.1253 0002202  97.9421 262.1963 13.21824174118442
ONEWEB-0575             
1 56064U 23043U   25231.67665338  .00000041  00000+0  73744-4 0  9993
2 56064  87.9019 288.8716 0002402 102.1253 258.0148 13.16592602119294
ONEWEB-0576             
1 56065U 23043V   25232.18963252 -.00000034  00000+0 -12229-3 0  9991
2 56065  87.9030 288.7620 0002102 101.7076 258.4291 13.16595154120263
ONEWEB-0577             
1 56066U 23043W   25231.66398335 -.00000026  00000+0 -10120-3 0  9997
2 56066  87.9029 288.8680 0002677 101.3174 258.8258 13.16595354119314
ONEWEB-0578             
1 56067U 23043X   25231.75618980 -.00000034  00000+0 -11397-3 0  9995
2 56067  87.9249 304.1228 0002019 104.9819 255.1539 13.21824289118414
ONEWEB-0579             
1 56068U 23043Y   25231.74673412 -.00000063  00000+0 -18426-3 0  9998
2 56068  87.9251 304.1108 0002009  89.8654 270.2710 13.21824865118422
ONEWEB-0581             
1 56069U 23043Z   25231.67032115  .00000063  00000+0  13196-3 0  9997
2 56069  87.9012 288.8900 0002444  94.2708 265.8702 13.16592709119288
ONEWEB-0609             
1 56070U 23043AA  25231.76856058  .00000012  00000+0 -19850-5 0  9999
2 56070  87.9078 319.3436 0001843  99.0110 261.1229 13.15546457116804
ONEWEB-0613             
1 56071U 23043AB  25231.76380678  .00000050  00000+0  97809-4 0  9990
2 56071  87.9081 319.3581 0001946  91.7894 268.3459 13.15547060116807
ONEWEB-0630             
1 56072U 23043AC  25231.75905503  .00000090  00000+0  20427-3 0  9995
2 56072  87.9072 319.3340 0001776  89.7096 270.4237 13.15547796116795
ONEWEB-0632             
1 56073U 23043AD  25231.75430270  .00000084  00000+0  18995-3 0  9990
2 56073  87.9072 319.3552 0002104  96.2183 263.9187 13.15547697116798
ONEWEB-0633             
1 56074U 23043AE  25232.28037221 -.00000076  00000+0 -23612-3 0  9994
2 56074  87.9067 319.2150 0001634  89.6346 270.4971 13.15548562117753
ONEWEB-0634             
1 56075U 23043AF  25231.80975775 -.00000180  00000+0 -51257-3 0  9999
2 56075  87.9080 319.3492 0001648 104.4525 255.6788 13.15547549116775
ONEWEB-0635             
1 56076U 23043AG  25231.80500757 -.00000241  00000+0 -67328-3 0  9998
2 56076  87.9053 319.3181 0002247  97.4071 262.7315 13.15548976116808
ONEWEB-0636             
1 56077U 23043AH  25231.79708541 -.00000134  00000+0 -39109-3 0  9995
2 56077  87.9065 319.3342 0002170  97.7954 262.3423 13.15547330116785
ONEWEB-0637             
1 56078U 23043AJ  25231.79075627  .00000000  00000+0 -33531-4 0  9993
2 56078  87.9067 319.3477 0002158 106.8978 253.2389 13.15550370116802
ONEWEB-0647             
1 56079U 23043AK  25231.78598622  .00000023  00000+0  27992-4 0  9996
2 56079  87.9082 319.3599 0002014  93.9606 266.1755 13.15546798116797
ONEWEB-0651             
1 56080U 23043AL  25232.31363792  .00000191  00000+0  47462-3 0  9995
2 56080  87.9083 319.2451 0002199 102.0440 258.0937 13.15547073116865
ONEWEB-0718             
1 56081U 23043AM  25231.77649692  .00000105  00000+0  24376-3 0  9995
2 56081  87.9079 319.3343 0001534 114.0871 246.0420 13.15548298116803
ONEWEB-0561             
1 56710U 23068A   25232.29179838  .00000088  00000+0  18517-3 0  9999
2 56710  87.9290 334.4218 0002352  92.7864 267.3538 13.20772150110485
ONEWEB-0668             
1 56711U 23068B   25231.67265368  .00000092  00000+0  20652-3 0  9993
2 56711  87.9031 288.8587 0001789 112.1020 248.0301 13.16591264112109
ONEWEB-0676             
1 56712U 23068C   25232.26088050 -.00000021  00000+0 -87992-4 0  9996
2 56712  87.9023 288.7630 0002331  92.7490 267.3908 13.16595992112803
ONEWEB-0677             
1 56713U 23068D   25231.82621528 -.00000064  00000+0 -18962-3 0  9998
2 56713  87.9289 334.4910 0002185 103.0298 257.1079 13.20773096110023
ONEWEB-0678             
1 56714U 23068E   25232.27719462 -.00000114  00000+0 -33800-3 0  9998
2 56714  87.9082 319.2069 0001921  88.8026 271.3325 13.15547119110422
ONEWEB-0679             
1 56715U 23068F   25231.62203603  .00000063  00000+0  13019-3 0  9993
2 56715  87.9022 288.8826 0002325 107.1953 252.9433 13.16593546112043
ONEWEB-0680             
1 56716U 23068G   25231.74987796 -.00000038  00000+0 -12297-3 0  9990
2 56716  87.9243 304.1111 0001962 116.7865 243.3469 13.21827381111272
ONEWEB-0681             
1 56717U 23068H   25231.72783017 -.00000013  00000+0 -63909-4 0  9999
2 56717  87.9253 304.1315 0003128  96.5767 263.5723 13.21837370111267
ONEWEB-0682             
1 56718U 23068J   25231.77093373  .00000151  00000+0  36784-3 0  9995
2 56718  87.9064 319.3309 0001960 114.5256 245.6079 13.15549408109824
ONEWEB-0683             
1 56719U 23068K   25231.79233261 -.00000013  00000+0 -68017-4 0  9994
2 56719  87.9076 319.3025 0001869 107.9181 252.2153 13.15547516109795
ONEWEB-0684             
1 56720U 23068L   25231.80025322 -.00000166  00000+0 -47423-3 0  9991
2 56720  87.9058 319.3038 0001453  50.8969 309.2291 13.15547029109627
ONEWEB-0686             
1 56721U 23068M   25232.21967543  .00000114  00000+0  26544-3 0  9990
2 56721  87.9014 288.7953 0001716 100.8927 259.2397 13.16597128112819
ONEWEB-0694             
1 56722U 23068N   25231.65450434 -.00000044  00000+0 -14794-3 0  9992
2 56722  87.9028 288.8336 0001958 109.2221 250.9121 13.16593640112097
ONEWEB-0696             
1 56723U 23068P   25231.75747164 -.00000004  00000+0 -45172-4 0  9994
2 56723  87.9077 319.3624 0001911  90.2441 269.8909 13.15547934109738
ONEWEB-0703             
1 56724U 23068Q   25231.76697689  .00000092  00000+0  21037-3 0  9990
2 56724  87.9063 319.3474 0002595  76.1110 284.0309 13.15546283109629
ONEWEB-0721             
1 56725U 23068R   25231.93789234 -.00000042  00000+0 -13490-3 0  9999
2 56725  86.6857 181.5327 0002010  79.1456 280.9903 13.22442669118122
ONEWEB-0015             
1 61594U 24188A   25232.31870074 -.00000151  00000+0 -46070-3 0  9990
2 61594  87.8789  81.0594 0002258  95.3412 264.7973 13.11418146 43108
ONEWEB-0687             
1 61595U 24188B   25232.29574192  .00000056  00000+0  11066-3 0  9999
2 61595  87.9020  65.7841 0001842 108.5405 251.5927 13.17648826 44569
ONEWEB-0688             
1 61596U 24188C   25232.24849197 -.00000002  00000+0 -37265-4 0  9998
2 61596  87.9019  65.7935 0002919 104.8010 255.3445 13.17648820 44335
ONEWEB-0689             
1 61597U 24188D   25231.58963793  .00000143  00000+0  36795-3 0  9994
2 61597  87.8748  81.1674 0001517  95.0539 265.0762 13.11413615 44927
ONEWEB-0690             
1 61598U 24188E   25232.28647569 -.00000172  00000+0 -52066-3 0  9996
2 61598  87.8793  80.9983 0002088  65.6737 294.4609 13.11413828 43308
ONEWEB-0691             
1 61599U 24188F   25232.28140409  .00000101  00000+0  25012-3 0  9999
2 61599  87.8710  80.9745 0002086  90.4203 269.7164 13.11414691 43328
ONEWEB-0692             
1 61600U 24188G   25231.61504094 -.00000456  00000+0 -13221-2 0  9995
2 61600  87.8778  81.2020 0000829  72.7371 287.3848 13.11420020 44944
ONEWEB-0693             
1 61601U 24188H   25232.26030319  .00000029  00000+0  41292-4 0  9997
2 61601  87.9022  65.8091 0002448  73.3120 286.8280 13.17650323 44482
ONEWEB-0695             
1 61602U 24188J   25231.59129770  .00000142  00000+0  36353-3 0  9990
2 61602  87.8780  81.1928 0001213  95.5450 264.5816 13.11412200 44936
ONEWEB-0697             
1 61603U 24188K   25231.62353690 -.00000446  00000+0 -12949-2 0  9998
2 61603  87.8774  81.1787 0000950  67.5604 292.5625 13.11418010 44923
ONEWEB-0698             
1 61604U 24188L   25232.28817301 -.00000165  00000+0 -50024-3 0  9991
2 61604  87.8774  81.0592 0001517  45.7216 314.4037 13.11414147 43077
ONEWEB-0699             
1 61605U 24188M   25232.13789732  .00000395  00000+0  10948-2 0  9995
2 61605  87.8775  96.2976 0001239  65.3965 294.7291 13.10377504 42012
ONEWEB-0700             
1 61606U 24188N   25231.68141261  .00000440  00000+0  12234-2 0  9995
2 61606  87.8747  96.2796 0001081  93.3633 266.7618 13.10375802 43810
ONEWEB-0701             
1 61607U 24188P   25231.69800706  .00000630  00000+0  17697-2 0  9992
2 61607  87.8765  96.3921 0000994  59.0787 301.0438 13.10373024 43821
ONEWEB-0702             
1 61608U 24188Q   25231.64729446  .00000576  00000+0  15883-2 0  9993
2 61608  87.8707  81.1307 0000789  85.1772 274.9446 13.11416939 44961
ONEWEB-0704             
1 61609U 24188R   25231.68639576  .00000601  00000+0  16839-2 0  9993
2 61609  87.8793  96.3394 0000719  84.3293 275.7916 13.10375095 43802
ONEWEB-0705             
1 61610U 24188S   25231.61502197  .00000668  00000+0  18784-2 0  9990
2 61610  87.8768  96.3918 0001473 124.8199 235.3067 13.10373904 42109
ONEWEB-0706             
1 61611U 24188T   25232.13456776  .00000231  00000+0  62670-3 0  9990
2 61611  87.8772  96.3158 0001135  93.4103 266.7154 13.10377141 42069
